OBJECT_NAME,OBJECT_ID,EPOCH,MEAN_MOTION,ECCENTRICITY,INCLINATION,RA_OF_ASC_NODE,ARG_OF_PERICENTER,MEAN_ANOMALY,EPHEMERIS_TYPE,CLASSIFICATION_TYPE,NORAD_CAT_ID,ELEMENT_SET_NO,REV_AT_EPOCH,BSTAR,MEAN_MOTION_DOT,MEAN_MOTION_DDOT
H-2A R/B,2006-002B,2026-07-08T22:28:05.332512,15.18377997,.00504245,98.2584,347.7399,187.2932,172.7573,0,U,28932,999,11282,.26202164E-3,.5483E-4,0
RESURS-DK 1,2006-021A,2026-07-09T05:53:23.533728,15.13306588,.00067816,69.9328,282.4503,277.8398,82.1999,0,U,29228,999,10591,.74140722E-4,.1215E-4,0
CZ-4B R/B,2006-046C,2026-07-09T01:46:10.826688,15.17949695,.00319855,97.5443,234.6133,203.5221,156.4552,0,U,29507,999,7845,.14663082E-3,.2944E-4,0
CZ-2C R/B,2007-010B,2026-07-09T06:01:40.747584,14.20280908,.00579085,98.4114,297.5248,301.3979,58.1542,0,U,31114,999,99697,.3951846E-4,.44E-6,0
COSMO-SKYMED 1,2007-023A,2026-07-09T07:46:45.888672,14.97202632,.0001049,97.8845,22.3672,93.4329,266.7012,0,U,31598,999,3310,.139333E-3,.1551E-4,0
COSMOS 2428,2007-029A,2026-07-09T07:16:03.203904,14.12931440,.00071728,70.9381,308.0425,92.6802,267.5140,0,U,31792,999,98127,.11159898E-3,.16E-5,0
SL-16 R/B,2007-029B,2026-07-09T05:34:45.611904,14.14850784,.00021278,70.9752,276.8873,257.7054,132.9035,0,U,31793,999,98256,-.37305243E-4,-.12E-5,0
KORONAS-FOTON,2009-003A,2026-07-09T06:43:08.008320,15.46203430,.00125129,82.4295,149.2055,80.4717,279.7945,0,U,33504,999,96451,.21209702E-3,.10486E-3,0
CZ-2C R/B,2011-030B,2026-07-08T20:31:18.253632,14.81523817,.00511955,97.8665,144.8521,317.3058,95.9852,0,U,37731,999,80803,.10754071E-3,.807E-5,0
H-2A R/B,2012-025E,2026-07-09T00:45:47.718720,14.95827533,.00421409,98.4845,166.9811,275.9423,83.6994,0,U,38341,999,76635,.13593673E-3,.1473E-4,0
SHIJIAN-16 (SJ-16),2013-057A,2026-07-09T08:35:38.081760,14.92660374,.00159671,74.9735,314.6902,178.8067,181.3162,0,U,39358,999,68965,.11577471E-3,.1167E-4,0
SL-4 R/B,2014-021B,2026-07-09T03:51:35.897760,15.42400194,.00900641,51.6056,103.0868,186.3192,173.6665,0,U,39679,999,67500,.17579085E-3,.8482E-4,0
ALOS-2,2014-029A,2026-07-09T06:07:21.931680,14.79473760,.00016267,97.9221,287.1037,92.9652,267.1746,0,U,39766,999,65484,.10497842E-3,.733E-5,0
YAOGAN-29,2015-069A,2026-07-09T07:22:22.893024,14.83104568,.00011896,98.0024,218.9741,21.6016,338.5248,0,U,41038,999,57390,.94298366E-4,.714E-5,0
ASTRO-H (HITOMI),2016-012A,2026-07-09T07:15:49.010112,15.10617364,.00095449,30.9998,291.3509,115.8775,244.2848,0,U,41337,999,57063,.10649857E-3,.1901E-4,0
HXMT (HUIYAN),2017-034A,2026-07-09T02:28:41.557728,15.18652205,.00327194,43.0146,60.9912,283.6438,76.0768,0,U,42758,999,50099,.16052574E-3,.3187E-4,0
SAOCOM 1A,2018-076A,2026-07-09T06:42:26.444736,14.82144759,.00014777,97.8893,16.7069,84.2523,275.8859,0,U,43641,999,41937,-.66500837E-4,-.581E-5,0
H-2A R/B,2018-084L,2026-07-08T18:02:44.394144,15.46022957,.00208441,98.8546,73.3657,324.4335,35.5519,0,U,43682,999,42445,.31445353E-3,.15368E-3,0
SAOCOM 1B,2020-059A,2026-07-09T07:27:26.125056,14.82153173,.00015792,97.8897,15.8337,80.4913,279.6479,0,U,46265,999,31676,-.64872517E-4,-.569E-5,0
CSS (TIANHE),2021-035A,2026-07-09T07:37:36.274080,15.58017197,.00026539,41.4688,187.4551,281.7622,78.2918,0,U,48274,999,29662,.18566091E-4,.1103E-4,0
COSMOS 2550,2021-056A,2026-07-09T07:48:24.050304,15.33787977,.00084382,67.1432,32.9402,271.5231,88.4957,0,U,48865,999,28211,.29464845E-4,.777E-5,0
CZ-2C R/B,2022-058K,2026-07-08T23:36:46.798272,15.63480368,.00307187,50.1859,49.9701,356.8972,3.1808,0,U,52794,999,22905,.33492133E-3,.31975E-3,0
CZ-2C R/B,2022-132E,2026-07-08T23:23:09.703104,15.74351437,.00107135,97.2895,198.0134,9.4182,350.7282,0,U,54039,999,20937,.35231701E-3,.51033E-3,0
GSLV R/B,2022-138AN,2026-07-09T05:44:16.141344,14.97366438,.002404,87.3814,125.5791,71.8269,288.5577,0,U,54149,999,20211,.18438878E-3,.2182E-4,0
XRISM,2023-137A,2026-07-09T05:33:28.918944,15.12644869,.00078263,31.0009,216.7875,186.6493,173.4043,0,U,57800,999,15620,.13552017E-3,.2527E-4,0
ACS3,2024-077B,2026-07-09T05:32:14.493984,13.95365546,.01164986,97.1733,104.1292,43.6245,317.4061,0,U,59588,999,11111,.16933884E-1,.24318E-3,0
SPACEMOBILE-003,2024-163A,2026-07-09T04:00:35.094240,15.20787211,.00054559,52.9653,208.3642,177.5789,182.5233,0,U,61045,999,10111,.36598881E-4,.49E-5,0
SPACEMOBILE-005,2024-163B,2026-07-09T00:27:30.069792,15.20760745,.00090789,52.9781,208.9865,177.0734,183.0315,0,U,61046,999,10108,.20157158E-3,.4173E-4,0
SPACEMOBILE-001,2024-163C,2026-07-08T11:48:14.698656,15.20812105,.00075215,52.9747,211.1260,173.6655,186.4436,0,U,61047,999,10100,.3983529E-4,.562E-5,0
SPACEMOBILE-002,2024-163D,2026-07-09T06:20:47.253120,15.20861316,.00066401,52.9763,207.6126,175.9238,184.1811,0,U,61048,999,10112,.29469552E-3,.6272E-4,0
